{
  "type": "FeatureCollection",
  "features": [
    {
      "type": "Feature",
      "properties": {
        "norad_id": 26766,
        "name": "INTELSAT 10 (IS-10)",
        "group": "intelsat",
        "lat": -6.915109919411428,
        "lon": -66.36542540256634,
        "alt_km": 36092.85951353246,
        "timestamp": "2025-12-25T07:41:09.390222+00:00",
        "meta_object_name": "INTELSAT 10 (IS-10)",
        "meta_object_id": "2001-019A",
        "meta_epoch": "2025-12-24T19:52:43.092192",
        "meta_mean_motion": 0.9907234,
        "meta_eccentricity": 0.00079377,
        "meta_inclination": 8.6564,
        "meta_ra_of_asc_node": 61.0345,
        "meta_arg_of_pericenter": 229.6069,
        "meta_mean_anomaly": 187.8365,
        "meta_ephemeris_type": 0,
        "meta_classification_type": "U",
        "meta_norad_cat_id": 26766,
        "meta_element_set_no": 999,
        "meta_rev_at_epoch": 4385,
        "meta_bstar": 0,
        "meta_mean_motion_dot": 1.5e-07,
        "meta_mean_motion_ddot": 0,
        "tle_line1": "1 26766U 01019A   25358.82827653  .00000015  00000+0  00000+0 0  9996",
        "tle_line2": "2 26766   8.6564  61.0345 0007937 229.6069 187.8365  0.99072340 43859"
      },
      "geometry": {
        "type": "Point",
        "coordinates": [
          -66.36542540256634,
          -6.915109919411428
        ]
      }
    },
    {
      "type": "Feature",
      "properties": {
        "norad_id": 26900,
        "name": "INTELSAT 902 (IS-902)",
        "group": "intelsat",
        "lat": 5.672254688290584,
        "lon": 159.09440515858023,
        "alt_km": 35791.51996369444,
        "timestamp": "2025-12-25T07:41:09.390246+00:00",
        "meta_object_name": "INTELSAT 902 (IS-902)",
        "meta_object_id": "2001-039A",
        "meta_epoch": "2025-12-15T13:09:02.081664",
        "meta_mean_motion": 1.0027087,
        "meta_eccentricity": 0.00045028,
        "meta_inclination": 5.6536,
        "meta_ra_of_asc_node": 74.0372,
        "meta_arg_of_pericenter": 189.6359,
        "meta_mean_anomaly": 327.9329,
        "meta_ephemeris_type": 0,
        "meta_classification_type": "U",
        "meta_norad_cat_id": 26900,
        "meta_element_set_no": 999,
        "meta_rev_at_epoch": 8885,
        "meta_bstar": 0,
        "meta_mean_motion_dot": -2.65e-06,
        "meta_mean_motion_ddot": 0,
        "tle_line1": "1 26900U 01039A   25349.54794076 -.00000265  00000+0  00000+0 0  9997",
        "tle_line2": "2 26900   5.6536  74.0372 0004502 189.6359 327.9329  1.00270870 88858"
      },
      "geometry": {
        "type": "Point",
        "coordinates": [
          159.09440515858023,
          5.672254688290584
        ]
      }
    },
    {
      "type": "Feature",
      "properties": {
        "norad_id": 27380,
        "name": "INTELSAT 904 (IS-904)",
        "group": "intelsat",
        "lat": 6.223161624785385,
        "lon": 177.9737406734541,
        "alt_km": 35790.88310550504,
        "timestamp": "2025-12-25T07:41:09.390263+00:00",
        "meta_object_name": "INTELSAT 904 (IS-904)",
        "meta_object_id": "2002-007A",
        "meta_epoch": "2025-12-23T23:15:16.271712",
        "meta_mean_motion": 1.00273356,
        "meta_eccentricity": 0.00018804,
        "meta_inclination": 6.4809,
        "meta_ra_of_asc_node": 71.3034,
        "meta_arg_of_pericenter": 245.293,
        "meta_mean_anomaly": 93.4817,
        "meta_ephemeris_type": 0,
        "meta_classification_type": "U",
        "meta_norad_cat_id": 27380,
        "meta_element_set_no": 999,
        "meta_rev_at_epoch": 5000,
        "meta_bstar": 0,
        "meta_mean_motion_dot": -2.07e-06,
        "meta_mean_motion_ddot": 0,
        "tle_line1": "1 27380U 02007A   25357.96893833 -.00000207  00000+0  00000+0 0  9998",
        "tle_line2": "2 27380   6.4809  71.3034 0001880 245.2930  93.4817  1.00273356 50003"
      },
      "geometry": {
        "type": "Point",
        "coordinates": [
          177.9737406734541,
          6.223161624785385
        ]
      }
    },
    {
      "type": "Feature",
      "properties": {
        "norad_id": 27426,
        "name": "DIRECTV 5 (TEMPO 1)",
        "group": "intelsat",
        "lat": 1.6599815051668263,
        "lon": 99.18967366520802,
        "alt_km": 35799.892347254536,
        "timestamp": "2025-12-25T07:41:09.390277+00:00",
        "meta_object_name": "DIRECTV 5 (TEMPO 1)",
        "meta_object_id": "2002-023A",
        "meta_epoch": "2025-12-24T10:03:10.210752",
        "meta_mean_motion": 1.00271626,
        "meta_eccentricity": 0.00033052,
        "meta_inclination": 4.4301,
        "meta_ra_of_asc_node": 77.5162,
        "meta_arg_of_pericenter": 203.2321,
        "meta_mean_anomaly": 213.12,
        "meta_ephemeris_type": 0,
        "meta_classification_type": "U",
        "meta_norad_cat_id": 27426,
        "meta_element_set_no": 999,
        "meta_rev_at_epoch": 8637,
        "meta_bstar": 0,
        "meta_mean_motion_dot": -3.8e-07,
        "meta_mean_motion_ddot": 0,
        "tle_line1": "1 27426U 02023A   25358.41886818 -.00000038  00000+0  00000+0 0  9995",
        "tle_line2": "2 27426   4.4301  77.5162 0003305 203.2321 213.1200  1.00271626 86375"
      },
      "geometry": {
        "type": "Point",
        "coordinates": [
          99.18967366520802,
          1.6599815051668263
        ]
      }
    },
    {
      "type": "Feature",
      "properties": {
        "norad_id": 27438,
        "name": "INTELSAT 905 (IS-905)",
        "group": "intelsat",
        "lat": 0.04496918720199159,
        "lon": 72.1946668864372,
        "alt_km": 35795.90332463604,
        "timestamp": "2025-12-25T07:41:09.390290+00:00",
        "meta_object_name": "INTELSAT 905 (IS-905)",
        "meta_object_id": "2002-027A",
        "meta_epoch": "2025-12-23T05:41:27.377952",
        "meta_mean_motion": 1.00273243,
        "meta_eccentricity": 0.00027491,
        "meta_inclination": 6.3102,
        "meta_ra_of_asc_node": 71.9349,
        "meta_arg_of_pericenter": 206.5226,
        "meta_mean_anomaly": 121.7385,
        "meta_ephemeris_type": 0,
        "meta_classification_type": "U",
        "meta_norad_cat_id": 27438,
        "meta_element_set_no": 999,
        "meta_rev_at_epoch": 4959,
        "meta_bstar": 0,
        "meta_mean_motion_dot": 1.12e-06,
        "meta_mean_motion_ddot": 0,
        "tle_line1": "1 27438U 02027A   25357.23712243  .00000112  00000+0  00000+0 0  9993",
        "tle_line2": "2 27438   6.3102  71.9349 0002749 206.5226 121.7385  1.00273243 49592"
      },
      "geometry": {
        "type": "Point",
        "coordinates": [
          72.1946668864372,
          0.04496918720199159
        ]
      }
    },
    {
      "type": "Feature",
      "properties": {
        "norad_id": 27445,
        "name": "GALAXY 3C (G-3C)",
        "group": "intelsat",
        "lat": 1.8673389993291847,
        "lon": 114.45542123308036,
        "alt_km": 35783.142000976266,
        "timestamp": "2025-12-25T07:41:09.390303+00:00",
        "meta_object_name": "GALAXY 3C (G-3C)",
        "meta_object_id": "2002-030A",
        "meta_epoch": "2025-12-24T12:38:58.653600",
        "meta_mean_motion": 1.00271316,
        "meta_eccentricity": 0.00010983,
        "meta_inclination": 3.2915,
        "meta_ra_of_asc_node": 80.3801,
        "meta_arg_of_pericenter": 85.9373,
        "meta_mean_anomaly": 21.8718,
        "meta_ephemeris_type": 0,
        "meta_classification_type": "U",
        "meta_norad_cat_id": 27445,
        "meta_element_set_no": 999,
        "meta_rev_at_epoch": 4474,
        "meta_bstar": 0,
        "meta_mean_motion_dot": -1.33e-06,
        "meta_mean_motion_ddot": 0,
        "tle_line1": "1 27445U 02030A   25358.52706775 -.00000133  00000+0  00000+0 0  9995",
        "tle_line2": "2 27445   3.2915  80.3801 0001098  85.9373  21.8718  1.00271316 44744"
      },
      "geometry": {
        "type": "Point",
        "coordinates": [
          114.45542123308036,
          1.8673389993291847
        ]
      }
    },
    {
      "type": "Feature",
      "properties": {
        "norad_id": 27513,
        "name": "INTELSAT 906 (IS-906)",
        "group": "intelsat",
        "lat": -1.7099238019747989,
        "lon": -86.57768494821482,
        "alt_km": 35760.42351141607,
        "timestamp": "2025-12-25T07:41:09.390316+00:00",
        "meta_object_name": "INTELSAT 906 (IS-906)",
        "meta_object_id": "2002-041A",
        "meta_epoch": "2025-12-24T20:15:07.472736",
        "meta_mean_motion": 1.0027071,
        "meta_eccentricity": 0.00061876,
        "meta_inclination": 5.3608,
        "meta_ra_of_asc_node": 75.0877,
        "meta_arg_of_pericenter": 201.2987,
        "meta_mean_anomaly": 185.1407,
        "meta_ephemeris_type": 0,
        "meta_classification_type": "U",
        "meta_norad_cat_id": 27513,
        "meta_element_set_no": 999,
        "meta_rev_at_epoch": 8528,
        "meta_bstar": 0,
        "meta_mean_motion_dot": 3.2e-07,
        "meta_mean_motion_ddot": 0,
        "tle_line1": "1 27513U 02041A   25358.84383649  .00000032  00000+0  00000+0 0  9996",
        "tle_line2": "2 27513   5.3608  75.0877 0006187 201.2987 185.1407  1.00270710 85284"
      },
      "geometry": {
        "type": "Point",
        "coordinates": [
          -86.57768494821482,
          -1.7099238019747989
        ]
      }
    }
  ]
}